QIANFAN-129             
1 69075U 26104C   26191.87216450 -.01974102  00000+0 -29396+1 0  9996
2 69075  88.9890 339.0324 0009213  24.8054 335.3542 13.57471265  8366
QIANFAN-130             
1 69076U 26104D   26191.54710944 -.01981670  00000+0 -30825+1 0  9995
2 69076  88.9897 339.1146 0014502  32.8521 327.3531 13.54704589  8298
QIANFAN-131             
1 69077U 26104E   26192.13436021  .00000026  00000+0  17817-4 0  9997
2 69077  88.9880 339.0320 0009204  25.6057 334.5553 13.60161397  8386
QIANFAN-132             
1 69078U 26104F   26192.37059096  .00000033  00000+0  29852-4 0  9997
2 69078  88.9890 339.0507 0009467  13.4599 346.6806 13.56494372  8395
QIANFAN-133             
1 69079U 26104G   26191.86802279 -.02043196  00000+0 -30696+1 0  9995
2 69079  88.9887 339.0697 0009692  20.6443 339.5101 13.57050672  8335
QIANFAN-134             
1 69080U 26104H   26193.85240940  .00000013  00000+0  88164-6 0  9995
2 69080  88.9895 338.8800 0010808  12.6172 347.5252 13.57810027  8604
QIANFAN-135             
1 69081U 26104J   26192.04745032  .00000020  00000+0  10298-4 0  9997
2 69081  88.9891 339.0575 0008859  24.5590 335.5985 13.58541040  8362
QIANFAN-136             
1 69082U 26104K   26193.83120301  .00000058  00000+0  63385-4 0  9998
2 69082  88.9893 338.8764 0011491  16.5092 343.6435 13.57857550  8608
QIANFAN-137             
1 69083U 26104L   26191.99209071 -.01938827  00000+0 -24139+1 0  9993
2 69083  88.9892 338.9573 0011472  48.8131 311.4018 13.68510273  8417
QIANFAN-138             
1 69084U 26104M   26193.83288346  .00000020  00000+0  10187-4 0  9995
2 69084  88.9887 338.8761 0008589  18.0132 342.1326 13.57845039  8608
QIANFAN-139             
1 69085U 26104N   26191.77813746 -.01972367  00000+0 -30380+1 0  9993
2 69085  88.9883 339.0746 0010307  42.8160 317.3795 13.55330900  8336
QIANFAN-140             
1 69086U 26104P   26191.76884746 -.02032643  00000+0 -31086+1 0  9990
2 69086  88.9885 339.0736 0009565  38.7842 321.3997 13.55905647  8338
QIANFAN-141             
1 69087U 26104Q   26192.12755225  .00000028  00000+0  18899-4 0  9990
2 69087  88.9895 339.0153 0007857  18.5786 341.5660 13.67269054  8393
QIANFAN-142             
1 69088U 26104R   26191.73257256 -.02082079  00000+0 -28341+1 0  9997
2 69088  88.9882 339.0495 0008180  17.0108 343.1323 13.63308822  8343
QIANFAN-143             
1 69089U 26104S   26191.89651132 -.02012877  00000+0 -29272+1 0  9999
2 69089  88.9888 339.0366 0007343 358.0686   2.0440 13.59043595  8367
QIANFAN-144             
1 69090U 26104T   26191.92258275 -.01988975  00000+0 -29404+1 0  9993
2 69090  88.9889 339.0401 0009176  11.4124 348.7237 13.57956874  8368
