{"fetched_at":"2026-07-13T07:47:58.237Z","source":"https://celestrak.org/NORAD/elements/gp.php?GROUP=qianfan&FORMAT=JSON","constellation":"qianfan","records":[{"OBJECT_NAME":"QIANFAN-129","OBJECT_ID":"2026-104C","EPOCH":"2026-07-10T20:55:55.012800","CLASSIFICATION_TYPE":"U","MEAN_MOTION":13.57471265,"ECCENTRICITY":0.0009213,"INCLINATION":88.989,"RA_OF_ASC_NODE":339.0324,"ARG_OF_PERICENTER":24.8054,"MEAN_ANOMALY":335.3542,"EPHEMERIS_TYPE":0,"NORAD_CAT_ID":69075,"ELEMENT_SET_NO":999,"REV_AT_EPOCH":836,"BSTAR":-2.9395788,"MEAN_MOTION_DOT":-0.01974102,"MEAN_MOTION_DDOT":0},{"OBJECT_NAME":"QIANFAN-130","OBJECT_ID":"2026-104D","EPOCH":"2026-07-10T13:07:50.255616","CLASSIFICATION_TYPE":"U","MEAN_MOTION":13.54704589,"ECCENTRICITY":0.00145029,"INCLINATION":88.9897,"RA_OF_ASC_NODE":339.1146,"ARG_OF_PERICENTER":32.8521,"MEAN_ANOMALY":327.3531,"EPHEMERIS_TYPE":0,"NORAD_CAT_ID":69076,"ELEMENT_SET_NO":999,"REV_AT_EPOCH":829,"BSTAR":-3.0825433,"MEAN_MOTION_DOT":-0.0198167,"MEAN_MOTION_DDOT":0},{"OBJECT_NAME":"QIANFAN-131","OBJECT_ID":"2026-104E","EPOCH":"2026-07-11T03:13:28.722144","CLASSIFICATION_TYPE":"U","MEAN_MOTION":13.60161397,"ECCENTRICITY":0.00092041,"INCLINATION":88.988,"RA_OF_ASC_NODE":339.032,"ARG_OF_PERICENTER":25.6057,"MEAN_ANOMALY":334.5553,"EPHEMERIS_TYPE":0,"NORAD_CAT_ID":69077,"ELEMENT_SET_NO":999,"REV_AT_EPOCH":838,"BSTAR":0.000017817426,"MEAN_MOTION_DOT":2.6e-7,"MEAN_MOTION_DDOT":0},{"OBJECT_NAME":"QIANFAN-132","OBJECT_ID":"2026-104F","EPOCH":"2026-07-11T08:53:39.058944","CLASSIFICATION_TYPE":"U","MEAN_MOTION":13.56494372,"ECCENTRICITY":0.0009467,"INCLINATION":88.989,"RA_OF_ASC_NODE":339.0507,"ARG_OF_PERICENTER":13.4599,"MEAN_ANOMALY":346.6806,"EPHEMERIS_TYPE":0,"NORAD_CAT_ID":69078,"ELEMENT_SET_NO":999,"REV_AT_EPOCH":839,"BSTAR":0.000029852293,"MEAN_MOTION_DOT":3.3e-7,"MEAN_MOTION_DDOT":0},{"OBJECT_NAME":"QIANFAN-133","OBJECT_ID":"2026-104G","EPOCH":"2026-07-10T20:49:57.169056","CLASSIFICATION_TYPE":"U","MEAN_MOTION":13.57050672,"ECCENTRICITY":0.00096922,"INCLINATION":88.9887,"RA_OF_ASC_NODE":339.0697,"ARG_OF_PERICENTER":20.6443,"MEAN_ANOMALY":339.5101,"EPHEMERIS_TYPE":0,"NORAD_CAT_ID":69079,"ELEMENT_SET_NO":999,"REV_AT_EPOCH":833,"BSTAR":-3.0695976,"MEAN_MOTION_DOT":-0.02043196,"MEAN_MOTION_DDOT":0},{"OBJECT_NAME":"QIANFAN-134","OBJECT_ID":"2026-104H","EPOCH":"2026-07-12T20:27:28.172160","CLASSIFICATION_TYPE":"U","MEAN_MOTION":13.57810027,"ECCENTRICITY":0.0010808,"INCLINATION":88.9895,"RA_OF_ASC_NODE":338.88,"ARG_OF_PERICENTER":12.6172,"MEAN_ANOMALY":347.5252,"EPHEMERIS_TYPE":0,"NORAD_CAT_ID":69080,"ELEMENT_SET_NO":999,"REV_AT_EPOCH":860,"BSTAR":8.8164e-7,"MEAN_MOTION_DOT":1.3e-7,"MEAN_MOTION_DDOT":0},{"OBJECT_NAME":"QIANFAN-135","OBJECT_ID":"2026-104J","EPOCH":"2026-07-11T01:08:19.707648","CLASSIFICATION_TYPE":"U","MEAN_MOTION":13.5854104,"ECCENTRICITY":0.00088598,"INCLINATION":88.9891,"RA_OF_ASC_NODE":339.0575,"ARG_OF_PERICENTER":24.559,"MEAN_ANOMALY":335.5985,"EPHEMERIS_TYPE":0,"NORAD_CAT_ID":69081,"ELEMENT_SET_NO":999,"REV_AT_EPOCH":836,"BSTAR":0.000010298073,"MEAN_MOTION_DOT":2e-7,"MEAN_MOTION_DDOT":0},{"OBJECT_NAME":"QIANFAN-136","OBJECT_ID":"2026-104K","EPOCH":"2026-07-12T19:56:55.940064","CLASSIFICATION_TYPE":"U","MEAN_MOTION":13.5785755,"ECCENTRICITY":0.0011491,"INCLINATION":88.9893,"RA_OF_ASC_NODE":338.8764,"ARG_OF_PERICENTER":16.5092,"MEAN_ANOMALY":343.6435,"EPHEMERIS_TYPE":0,"NORAD_CAT_ID":69082,"ELEMENT_SET_NO":999,"REV_AT_EPOCH":860,"BSTAR":0.000063385,"MEAN_MOTION_DOT":5.8e-7,"MEAN_MOTION_DDOT":0},{"OBJECT_NAME":"QIANFAN-137","OBJECT_ID":"2026-104L","EPOCH":"2026-07-10T23:48:36.637344","CLASSIFICATION_TYPE":"U","MEAN_MOTION":13.68510273,"ECCENTRICITY":0.00114725,"INCLINATION":88.9892,"RA_OF_ASC_NODE":338.9573,"ARG_OF_PERICENTER":48.8131,"MEAN_ANOMALY":311.4018,"EPHEMERIS_TYPE":0,"NORAD_CAT_ID":69083,"ELEMENT_SET_NO":999,"REV_AT_EPOCH":841,"BSTAR":-2.4138726,"MEAN_MOTION_DOT":-0.01938827,"MEAN_MOTION_DDOT":0},{"OBJECT_NAME":"QIANFAN-138","OBJECT_ID":"2026-104M","EPOCH":"2026-07-12T19:59:21.130944","CLASSIFICATION_TYPE":"U","MEAN_MOTION":13.57845039,"ECCENTRICITY":0.0008589,"INCLINATION":88.9887,"RA_OF_ASC_NODE":338.8761,"ARG_OF_PERICENTER":18.0132,"MEAN_ANOMALY":342.1326,"EPHEMERIS_TYPE":0,"NORAD_CAT_ID":69084,"ELEMENT_SET_NO":999,"REV_AT_EPOCH":860,"BSTAR":0.000010187,"MEAN_MOTION_DOT":2e-7,"MEAN_MOTION_DDOT":0},{"OBJECT_NAME":"QIANFAN-139","OBJECT_ID":"2026-104N","EPOCH":"2026-07-10T18:40:31.076544","CLASSIFICATION_TYPE":"U","MEAN_MOTION":13.553309,"ECCENTRICITY":0.00103071,"INCLINATION":88.9883,"RA_OF_ASC_NODE":339.0746,"ARG_OF_PERICENTER":42.816,"MEAN_ANOMALY":317.3795,"EPHEMERIS_TYPE":0,"NORAD_CAT_ID":69085,"ELEMENT_SET_NO":999,"REV_AT_EPOCH":833,"BSTAR":-3.0379644,"MEAN_MOTION_DOT":-0.01972367,"MEAN_MOTION_DDOT":0},{"OBJECT_NAME":"QIANFAN-140","OBJECT_ID":"2026-104P","EPOCH":"2026-07-10T18:27:08.420544","CLASSIFICATION_TYPE":"U","MEAN_MOTION":13.55905647,"ECCENTRICITY":0.00095653,"INCLINATION":88.9885,"RA_OF_ASC_NODE":339.0736,"ARG_OF_PERICENTER":38.7842,"MEAN_ANOMALY":321.3997,"EPHEMERIS_TYPE":0,"NORAD_CAT_ID":69086,"ELEMENT_SET_NO":999,"REV_AT_EPOCH":833,"BSTAR":-3.1086311,"MEAN_MOTION_DOT":-0.02032643,"MEAN_MOTION_DDOT":0},{"OBJECT_NAME":"QIANFAN-141","OBJECT_ID":"2026-104Q","EPOCH":"2026-07-11T03:03:40.514400","CLASSIFICATION_TYPE":"U","MEAN_MOTION":13.67269054,"ECCENTRICITY":0.00078577,"INCLINATION":88.9895,"RA_OF_ASC_NODE":339.0153,"ARG_OF_PERICENTER":18.5786,"MEAN_ANOMALY":341.566,"EPHEMERIS_TYPE":0,"NORAD_CAT_ID":69087,"ELEMENT_SET_NO":999,"REV_AT_EPOCH":839,"BSTAR":0.000018898633,"MEAN_MOTION_DOT":2.8e-7,"MEAN_MOTION_DDOT":0},{"OBJECT_NAME":"QIANFAN-142","OBJECT_ID":"2026-104R","EPOCH":"2026-07-10T17:34:54.269184","CLASSIFICATION_TYPE":"U","MEAN_MOTION":13.63308822,"ECCENTRICITY":0.00081808,"INCLINATION":88.9882,"RA_OF_ASC_NODE":339.0495,"ARG_OF_PERICENTER":17.0108,"MEAN_ANOMALY":343.1323,"EPHEMERIS_TYPE":0,"NORAD_CAT_ID":69088,"ELEMENT_SET_NO":999,"REV_AT_EPOCH":834,"BSTAR":-2.8341349,"MEAN_MOTION_DOT":-0.02082079,"MEAN_MOTION_DDOT":0},{"OBJECT_NAME":"QIANFAN-143","OBJECT_ID":"2026-104S","EPOCH":"2026-07-10T21:30:58.578048","CLASSIFICATION_TYPE":"U","MEAN_MOTION":13.59043595,"ECCENTRICITY":0.00073437,"INCLINATION":88.9888,"RA_OF_ASC_NODE":339.0366,"ARG_OF_PERICENTER":358.0686,"MEAN_ANOMALY":2.044,"EPHEMERIS_TYPE":0,"NORAD_CAT_ID":69089,"ELEMENT_SET_NO":999,"REV_AT_EPOCH":836,"BSTAR":-2.9272051,"MEAN_MOTION_DOT":-0.02012877,"MEAN_MOTION_DDOT":0},{"OBJECT_NAME":"QIANFAN-144","OBJECT_ID":"2026-104T","EPOCH":"2026-07-10T22:08:31.149600","CLASSIFICATION_TYPE":"U","MEAN_MOTION":13.57956874,"ECCENTRICITY":0.00091761,"INCLINATION":88.9889,"RA_OF_ASC_NODE":339.0401,"ARG_OF_PERICENTER":11.4124,"MEAN_ANOMALY":348.7237,"EPHEMERIS_TYPE":0,"NORAD_CAT_ID":69090,"ELEMENT_SET_NO":999,"REV_AT_EPOCH":836,"BSTAR":-2.9403691,"MEAN_MOTION_DOT":-0.01988975,"MEAN_MOTION_DDOT":0}]}
